{
  "type": "FeatureCollection",
  "features": [
    {
      "type": "Feature",
      "properties": {
        "norad_id": 34722,
        "name": "COSMOS 2251 DEB",
        "group": "cosmos-2251-debris",
        "lat": -18.928903607309305,
        "lon": 165.2408750752509,
        "alt_km": 806.2522737987247,
        "timestamp": "2025-12-10T18:57:00.460059+00:00",
        "meta_object_name": "COSMOS 2251 DEB",
        "meta_object_id": "1993-036YQ",
        "meta_epoch": "2025-12-10T10:13:03.656064",
        "meta_mean_motion": 14.11922799,
        "meta_eccentricity": 0.0167245,
        "meta_inclination": 73.873,
        "meta_ra_of_asc_node": 340.1951,
        "meta_arg_of_pericenter": 266.1599,
        "meta_mean_anomaly": 246.4916,
        "meta_ephemeris_type": 0,
        "meta_classification_type": "U",
        "meta_norad_cat_id": 34722,
        "meta_element_set_no": 999,
        "meta_rev_at_epoch": 86212,
        "meta_bstar": 0.0012605,
        "meta_mean_motion_dot": 2.602e-05,
        "meta_mean_motion_ddot": 0,
        "tle_line1": "1 34722U 93036YQ  25344.42573676  .00002602  00000+0  12605-2 0  9992",
        "tle_line2": "2 34722  73.8730 340.1951 0167245 266.1599 246.4916 14.11922799862120"
      },
      "geometry": {
        "type": "Point",
        "coordinates": [
          165.2408750752509,
          -18.928903607309305
        ]
      }
    },
    {
      "type": "Feature",
      "properties": {
        "norad_id": 34726,
        "name": "COSMOS 2251 DEB",
        "group": "cosmos-2251-debris",
        "lat": -69.23628351275191,
        "lon": -140.8994019789832,
        "alt_km": 714.2829383458329,
        "timestamp": "2025-12-10T18:57:00.460069+00:00",
        "meta_object_name": "COSMOS 2251 DEB",
        "meta_object_id": "1993-036YU",
        "meta_epoch": "2025-12-10T02:58:32.457792",
        "meta_mean_motion": 14.59465527,
        "meta_eccentricity": 0.00420967,
        "meta_inclination": 74.0291,
        "meta_ra_of_asc_node": 351.3133,
        "meta_arg_of_pericenter": 142.9873,
        "meta_mean_anomaly": 217.421,
        "meta_ephemeris_type": 0,
        "meta_classification_type": "U",
        "meta_norad_cat_id": 34726,
        "meta_element_set_no": 999,
        "meta_rev_at_epoch": 88464,
        "meta_bstar": 0.00055032613,
        "meta_mean_motion_dot": 2.613e-05,
        "meta_mean_motion_ddot": 0,
        "tle_line1": "1 34726U 93036YU  25344.12398678  .00002613  00000+0  55033-3 0  9995",
        "tle_line2": "2 34726  74.0291 351.3133 0042096 142.9873 217.4210 14.59465527884646"
      },
      "geometry": {
        "type": "Point",
        "coordinates": [
          -140.8994019789832,
          -69.23628351275191
        ]
      }
    },
    {
      "type": "Feature",
      "properties": {
        "norad_id": 34728,
        "name": "COSMOS 2251 DEB",
        "group": "cosmos-2251-debris",
        "lat": 51.41314475009044,
        "lon": -83.3877757812203,
        "alt_km": 624.5390762995157,
        "timestamp": "2025-12-10T18:57:00.460079+00:00",
        "meta_object_name": "COSMOS 2251 DEB",
        "meta_object_id": "1993-036YW",
        "meta_epoch": "2025-12-09T11:41:21.069888",
        "meta_mean_motion": 14.70794927,
        "meta_eccentricity": 0.00409671,
        "meta_inclination": 74.0171,
        "meta_ra_of_asc_node": 258.0914,
        "meta_arg_of_pericenter": 56.6298,
        "meta_mean_anomaly": 303.8783,
        "meta_ephemeris_type": 0,
        "meta_classification_type": "U",
        "meta_norad_cat_id": 34728,
        "meta_element_set_no": 999,
        "meta_rev_at_epoch": 88752,
        "meta_bstar": 0.0012390282,
        "meta_mean_motion_dot": 7.642e-05,
        "meta_mean_motion_ddot": 0,
        "tle_line1": "1 34728U 93036YW  25343.48704942  .00007642  00000+0  12390-2 0  9995",
        "tle_line2": "2 34728  74.0171 258.0914 0040967  56.6298 303.8783 14.70794927887529"
      },
      "geometry": {
        "type": "Point",
        "coordinates": [
          -83.3877757812203,
          51.41314475009044
        ]
      }
    },
    {
      "type": "Feature",
      "properties": {
        "norad_id": 34729,
        "name": "COSMOS 2251 DEB",
        "group": "cosmos-2251-debris",
        "lat": -15.175025737561816,
        "lon": -2.1655512314078016,
        "alt_km": 631.4266030027247,
        "timestamp": "2025-12-10T18:57:00.460089+00:00",
        "meta_object_name": "COSMOS 2251 DEB",
        "meta_object_id": "1993-036YX",
        "meta_epoch": "2025-12-10T11:28:41.105856",
        "meta_mean_motion": 14.82688425,
        "meta_eccentricity": 0.0011878,
        "meta_inclination": 74.0182,
        "meta_ra_of_asc_node": 2.9089,
        "meta_arg_of_pericenter": 123.3665,
        "meta_mean_anomaly": 359.9211,
        "meta_ephemeris_type": 0,
        "meta_classification_type": "U",
        "meta_norad_cat_id": 34729,
        "meta_element_set_no": 999,
        "meta_rev_at_epoch": 88424,
        "meta_bstar": 0.0026907,
        "meta_mean_motion_dot": 0.0002177,
        "meta_mean_motion_ddot": 0,
        "tle_line1": "1 34729U 93036YX  25344.47825354  .00021770  00000+0  26907-2 0  9994",
        "tle_line2": "2 34729  74.0182   2.9089 0011878 123.3665 359.9211 14.82688425884242"
      },
      "geometry": {
        "type": "Point",
        "coordinates": [
          -2.1655512314078016,
          -15.175025737561816
        ]
      }
    },
    {
      "type": "Feature",
      "properties": {
        "norad_id": 34732,
        "name": "COSMOS 2251 DEB",
        "group": "cosmos-2251-debris",
        "lat": 71.79081983604418,
        "lon": -143.58773858811816,
        "alt_km": 751.9297608329271,
        "timestamp": "2025-12-10T18:57:00.460098+00:00",
        "meta_object_name": "COSMOS 2251 DEB",
        "meta_object_id": "1993-036ZA",
        "meta_epoch": "2025-12-10T07:00:38.330784",
        "meta_mean_motion": 14.47296381,
        "meta_eccentricity": 0.0040439,
        "meta_inclination": 74.0451,
        "meta_ra_of_asc_node": 97.7594,
        "meta_arg_of_pericenter": 249.2333,
        "meta_mean_anomaly": 138.9201,
        "meta_ephemeris_type": 0,
        "meta_classification_type": "U",
        "meta_norad_cat_id": 34732,
        "meta_element_set_no": 999,
        "meta_rev_at_epoch": 88108,
        "meta_bstar": 0.00026368,
        "meta_mean_motion_dot": 9.47e-06,
        "meta_mean_motion_ddot": 0,
        "tle_line1": "1 34732U 93036ZA  25344.29211031  .00000947  00000+0  26368-3 0  9994",
        "tle_line2": "2 34732  74.0451  97.7594 0040439 249.2333 138.9201 14.47296381881083"
      },
      "geometry": {
        "type": "Point",
        "coordinates": [
          -143.58773858811816,
          71.79081983604418
        ]
      }
    },
    {
      "type": "Feature",
      "properties": {
        "norad_id": 34736,
        "name": "COSMOS 2251 DEB",
        "group": "cosmos-2251-debris",
        "lat": -63.746272893364896,
        "lon": -103.93446386563411,
        "alt_km": 438.3028087011335,
        "timestamp": "2025-12-10T18:57:00.460108+00:00",
        "meta_object_name": "COSMOS 2251 DEB",
        "meta_object_id": "1993-036ZE",
        "meta_epoch": "2025-12-10T10:06:25.504992",
        "meta_mean_motion": 15.45192633,
        "meta_eccentricity": 0.0017257,
        "meta_inclination": 74.0018,
        "meta_ra_of_asc_node": 41.2985,
        "meta_arg_of_pericenter": 348.8512,
        "meta_mean_anomaly": 11.2313,
        "meta_ephemeris_type": 0,
        "meta_classification_type": "U",
        "meta_norad_cat_id": 34736,
        "meta_element_set_no": 999,
        "meta_rev_at_epoch": 88412,
        "meta_bstar": 0.010786,
        "meta_mean_motion_dot": 0.00552262,
        "meta_mean_motion_ddot": 0,
        "tle_line1": "1 34736U 93036ZE  25344.42112853  .00552262  00000+0  10786-1 0  9992",
        "tle_line2": "2 34736  74.0018  41.2985 0017257 348.8512  11.2313 15.45192633884120"
      },
      "geometry": {
        "type": "Point",
        "coordinates": [
          -103.93446386563411,
          -63.746272893364896
        ]
      }
    },
    {
      "type": "Feature",
      "properties": {
        "norad_id": 34738,
        "name": "COSMOS 2251 DEB",
        "group": "cosmos-2251-debris",
        "lat": 39.83499495665388,
        "lon": -46.9246655935759,
        "alt_km": 764.938572690704,
        "timestamp": "2025-12-10T18:57:00.460118+00:00",
        "meta_object_name": "COSMOS 2251 DEB",
        "meta_object_id": "1993-036ZG",
        "meta_epoch": "2025-12-10T11:57:12.732192",
        "meta_mean_motion": 14.46293866,
        "meta_eccentricity": 0.0047336,
        "meta_inclination": 74.0142,
        "meta_ra_of_asc_node": 147.4556,
        "meta_arg_of_pericenter": 294.1327,
        "meta_mean_anomaly": 126.971,
        "meta_ephemeris_type": 0,
        "meta_classification_type": "U",
        "meta_norad_cat_id": 34738,
        "meta_element_set_no": 999,
        "meta_rev_at_epoch": 87826,
        "meta_bstar": 0.00050317,
        "meta_mean_motion_dot": 1.801e-05,
        "meta_mean_motion_ddot": 0,
        "tle_line1": "1 34738U 93036ZG  25344.49806403  .00001801  00000+0  50317-3 0  9996",
        "tle_line2": "2 34738  74.0142 147.4556 0047336 294.1327 126.9710 14.46293866878264"
      },
      "geometry": {
        "type": "Point",
        "coordinates": [
          -46.9246655935759,
          39.83499495665388
        ]
      }
    }
  ]
}